NORAD_CAT_ID,OBJECT_NAME,OBJECT_TYPE,EPOCH,MEAN_MOTION,ECCENTRICITY,INCLINATION,RA_OF_ASC_NODE,ARG_OF_PERICENTER,MEAN_ANOMALY,BSTAR,MEAN_MOTION_DOT,MEAN_MOTION_DDOT,TLE_LINE0,TLE_LINE1,TLE_LINE2,SEMIMAJOR_AXIS,PERIOD,APOGEE,PERIGEE,DECAYED
52602.0,STARLINK-4012,PAYLOAD,2024-07-04 05:07:57,15.08834646,0.0001168,53.2146,153.1208,80.5071,279.6053,-1.5474e-05,-5.34e-06,0.0,0 STARLINK-4012,1 52602U 22052E   24186.21385580 -.00000534  00000-0 -15474-4 0  9998,2 52602  53.2146 153.1208 0001168  80.5071 279.6053 15.08834646118619,6917.897,95.438,540.57,538.954,0.0
52602.0,STARLINK-4012,PAYLOAD,2024-07-04 06:43:20,15.08833811,0.0001218,53.2148,152.8233,77.0401,283.0727,0.00024493,3.612e-05,0.0,0 STARLINK-4012,1 52602U 22052E   24186.28009834  .00003612  00000-0  24493-3 0  9998,2 52602  53.2148 152.8233 0001218  77.0401 283.0727 15.08833811119058,6917.899,95.438,540.607,538.922,0.0
52602.0,STARLINK-4012,PAYLOAD,2024-07-04 14:40:16,15.08838469,0.0001197,53.2146,151.3365,79.0387,281.0739,0.00066939,0.00010381,0.0,0 STARLINK-4012,1 52602U 22052E   24186.61130196  .00010381  00000-0  66939-3 0  9993,2 52602  53.2146 151.3365 0001197  79.0387 281.0739 15.08838469119108,6917.885,95.438,540.578,538.922,0.0
52602.0,STARLINK-4012,PAYLOAD,2024-07-05 06:34:07,15.0884575,0.0001294,53.2153,148.3634,84.8981,275.2159,0.00050854,7.816e-05,0.0,0 STARLINK-4012,1 52602U 22052E   24187.27370259  .00007816  00000-0  50854-3 0  9990,2 52602  53.2153 148.3634 0001294  84.8981 275.2159 15.08845750118777,6917.863,95.437,540.623,538.833,0.0
52602.0,STARLINK-4012,PAYLOAD,2024-07-05 20:52:36,15.0883349,0.0001209,53.2151,145.6869,92.0326,268.0805,-7.6913e-05,-1.511e-05,0.0,0 STARLINK-4012,1 52602U 22052E   24187.86986412 -.00001511  00000-0 -76913-4 0  9992,2 52602  53.2151 145.6869 0001209  92.0326 268.0805 15.08833490118861,6917.9,95.438,540.602,538.929,0.0
52602.0,STARLINK-4012,PAYLOAD,2024-07-06 06:24:55,15.08840627,0.0001288,53.2155,143.9036,92.9175,267.1964,0.00022276,3.259e-05,0.0,0 STARLINK-4012,1 52602U 22052E   24188.26730478  .00003259  00000-0  22276-3 0  9997,2 52602  53.2155 143.9036 0001288  92.9175 267.1964 15.08840627119351,6917.878,95.438,540.634,538.852,0.0
52602.0,STARLINK-4012,PAYLOAD,2024-07-06 14:21:50,15.08845454,0.0001222,53.2152,142.4164,91.5254,268.5878,0.00034962,5.282e-05,0.0,0 STARLINK-4012,1 52602U 22052E   24188.59850355  .00005282  00000-0  34962-3 0  9993,2 52602  53.2152 142.4164 0001222  91.5254 268.5878 15.08845454118974,6917.864,95.437,540.574,538.883,0.0
52602.0,STARLINK-4012,PAYLOAD,2024-07-07 03:04:56,15.08839515,0.0001294,53.2155,140.036,94.7681,265.3459,0.00030746,4.609e-05,0.0,0 STARLINK-4012,1 52602U 22052E   24189.12842877  .00004609  00000-0  30746-3 0  9991,2 52602  53.2155 140.0360 0001294  94.7681 265.3459 15.08839515119058,6917.882,95.438,540.642,538.852,0.0
52602.0,STARLINK-4012,PAYLOAD,2024-07-07 06:15:42,15.08835546,0.0001622,53.2168,139.4419,102.2423,257.8751,0.00016142,2.282e-05,0.0,0 STARLINK-4012,1 52602U 22052E   24189.26091017  .00002282  00000-0  16142-3 0  9997,2 52602  53.2168 139.4419 0001622 102.2423 257.8751 15.08835546119504,6917.894,95.438,540.881,538.637,0.0
52602.0,STARLINK-4012,PAYLOAD,2024-07-08 06:06:29,15.08852637,0.0001391,53.2155,134.9815,92.4872,267.628,0.00060149,9.301e-05,0.0,0 STARLINK-4012,1 52602U 22052E   24190.25450678  .00009301  00000-0  60149-3 0  9995,2 52602  53.2155 134.9815 0001391  92.4872 267.6280 15.08852637119226,6917.842,95.437,540.669,538.744,0.0
52602.0,STARLINK-4012,PAYLOAD,2024-07-09 02:46:30,15.08842555,0.0001455,53.2162,131.1118,102.7936,257.3219,0.00014775,2.064e-05,0.0,0 STARLINK-4012,1 52602U 22052E   24191.11562699  .00002064  00000-0  14775-3 0  9991,2 52602  53.2162 131.1118 0001455 102.7936 257.3219 15.08842555119356,6917.873,95.437,540.744,538.731,0.0
52602.0,STARLINK-4012,PAYLOAD,2024-07-09 05:57:16,15.08837208,0.0001535,53.2167,130.5177,104.8846,255.2316,0.00011318,1.514e-05,0.0,0 STARLINK-4012,1 52602U 22052E   24191.24810914  .00001514  00000-0  11318-3 0  9990,2 52602  53.2167 130.5177 0001535 104.8846 255.2316 15.08837208119805,6917.889,95.438,540.816,538.692,0.0
52602.0,STARLINK-4012,PAYLOAD,2024-07-10 02:37:17,15.08836889,0.0001314,53.2168,126.6521,92.513,267.6013,2.8803e-06,-2.42e-06,0.0,0 STARLINK-4012,1 52602U 22052E   24192.10923341 -.00000242  00000-0  28803-5 0  9992,2 52602  53.2168 126.6521 0001314  92.5130 267.6013 15.08836889119501,6917.89,95.438,540.664,538.846,0.0
52602.0,STARLINK-4012,PAYLOAD,2024-07-10 12:09:36,15.08843963,0.0001306,53.2168,124.8696,94.1612,265.9529,5.523e-05,5.91e-06,0.0,0 STARLINK-4012,1 52602U 22052E   24192.50666791  .00000591  00000-0  55230-4 0  9998,2 52602  53.2168 124.8696 0001306  94.1612 265.9529 15.08843963119568,6917.868,95.437,540.637,538.83,0.0
52602.0,STARLINK-4012,PAYLOAD,2024-07-10 20:06:32,15.08833842,0.0001423,53.2177,123.3882,105.5785,254.5364,8.008e-05,9.87e-06,0.0,0 STARLINK-4012,1 52602U 22052E   24192.83787487  .00000987  00000-0  80080-4 0  9990,2 52602  53.2177 123.3882 0001423 105.5785 254.5364 15.08833842119619,6917.899,95.438,540.749,538.78,0.0
52602.0,STARLINK-4012,PAYLOAD,2024-07-11 05:38:50,15.08845759,0.0001414,53.2176,121.602,101.865,258.2501,0.00016513,2.341e-05,0.0,0 STARLINK-4012,1 52602U 22052E   24193.23530872  .00002341  00000-0  16513-3 0  9994,2 52602  53.2176 121.6020 0001414 101.8650 258.2501 15.08845759120103,6917.863,95.437,540.706,538.75,0.0
52602.0,STARLINK-4012,PAYLOAD,2024-07-12 02:18:51,15.08841598,0.0001268,53.2158,117.7338,89.4127,270.701,0.00012298,1.67e-05,0.0,0 STARLINK-4012,1 52602U 22052E   24194.09643182  .00001670  00000-0  12298-3 0  9998,2 52602  53.2158 117.7338 0001268  89.4127 270.7010 15.08841598119804,6917.876,95.437,540.618,538.863,0.0
52602.0,STARLINK-4012,PAYLOAD,2024-07-12 11:51:10,15.08849704,0.0001322,53.216,115.9487,79.6783,280.4358,0.00017962,2.573e-05,0.0,0 STARLINK-4012,1 52602U 22052E   24194.49386715  .00002573  00000-0  17962-3 0  9994,2 52602  53.2160 115.9487 0001322  79.6783 280.4358 15.08849704120297,6917.851,95.437,540.63,538.801,0.0
52602.0,STARLINK-4012,PAYLOAD,2024-07-13 03:45:02,15.08838579,0.0001595,53.2167,112.9747,86.8207,273.2967,2.2416e-06,-2.52e-06,0.0,0 STARLINK-4012,1 52602U 22052E   24195.15627439 -.00000252  00000-0  22416-5 0  9994,2 52602  53.2167 112.9747 0001595  86.8207 273.2967 15.08838579119969,6917.885,95.438,540.853,538.646,0.0
52602.0,STARLINK-4012,PAYLOAD,2024-07-13 11:41:57,15.08852715,0.0001758,53.218,111.4877,78.4355,281.6834,0.00020458,2.97e-05,0.0,0 STARLINK-4012,1 52602U 22052E   24195.48746720  .00002970  00000-0  20458-3 0  9995,2 52602  53.2180 111.4877 0001758  78.4355 281.6834 15.08852715120016,6917.842,95.437,540.923,538.49,0.0
52602.0,STARLINK-4012,PAYLOAD,2024-07-13 22:49:39,15.08840462,0.0001695,53.2166,109.4068,81.6822,278.4362,2.4241e-05,9.8e-07,0.0,0 STARLINK-4012,1 52602U 22052E   24195.95115360  .00000098  00000-0  24241-4 0  9991,2 52602  53.2166 109.4068 0001695  81.6822 278.4362 15.08840462120515,6917.879,95.438,540.917,538.571,0.0
52602.0,STARLINK-4012,PAYLOAD,2024-07-14 03:35:48,15.08848677,0.0001333,53.2151,108.5154,79.3997,280.7145,0.00019882,2.878e-05,0.0,0 STARLINK-4012,1 52602U 22052E   24196.14986972  .00002878  00000-0  19882-3 0  9990,2 52602  53.2151 108.5154 0001333  79.3997 280.7145 15.08848677120118,6917.854,95.437,540.641,538.797,0.0
52602.0,STARLINK-4012,PAYLOAD,2024-07-14 11:32:44,15.08855767,0.0001412,53.2158,107.0308,85.7173,274.398,0.00037986,5.765e-05,0.0,0 STARLINK-4012,1 52602U 22052E   24196.48106604  .00005765  00000-0  37986-3 0  9996,2 52602  53.2158 107.0308 0001412  85.7173 274.3980 15.08855767120591,6917.832,95.437,540.674,538.72,0.0
52602.0,STARLINK-4012,PAYLOAD,2024-07-14 17:54:17,15.08833219,0.0001365,53.2164,105.8404,98.7866,261.3281,-8.5099e-06,-4.23e-06,0.0,0 STARLINK-4012,1 52602U 22052E   24196.74603594 -.00000423  00000-0 -85099-5 0  9993,2 52602  53.2164 105.8404 0001365  98.7866 261.3281 15.08833219120207,6917.901,95.438,540.71,538.822,0.0
52602.0,STARLINK-4012,PAYLOAD,2024-07-14 22:40:26,15.08842121,0.0001552,53.2152,104.9488,95.1416,264.9753,0.00019729,2.853e-05,0.0,0 STARLINK-4012,1 52602U 22052E   24196.94475253  .00002853  00000-0  19729-3 0  9996,2 52602  53.2152 104.9488 0001552  95.1416 264.9753 15.08842121120661,6917.874,95.437,540.813,538.665,0.0
52602.0,STARLINK-4012,PAYLOAD,2024-07-15 03:26:35,15.08849694,0.0001549,53.2152,104.0549,102.5709,257.5457,0.00084972,0.00013265,0.0,0 STARLINK-4012,1 52602U 22052E   24197.14347126  .00013265  00000-0  84972-3 0  9997,2 52602  53.2152 104.0549 0001549 102.5709 257.5457 15.08849694120261,6917.851,95.437,540.787,538.644,0.0
52602.0,STARLINK-4012,PAYLOAD,2024-07-15 11:23:31,15.0885398,0.0001331,53.214,102.5674,97.8067,262.3076,0.00072957,0.00011347,0.0,0 STARLINK-4012,1 52602U 22052E   24197.47466946  .00011347  00000-0  72957-3 0  9994,2 52602  53.2140 102.5674 0001331  97.8067 262.3076 15.08853980120749,6917.838,95.437,540.623,538.782,0.0
52602.0,STARLINK-4012,PAYLOAD,2024-07-15 20:55:50,15.08834313,0.000135,53.2151,100.7855,86.1586,273.956,0.00021919,3.202e-05,0.0,0 STARLINK-4012,1 52602U 22052E   24197.87211509  .00003202  00000-0  21919-3 0  9994,2 52602  53.2151 100.7855 0001350  86.1586 273.9560 15.08834313120374,6917.898,95.438,540.697,538.829,0.0
52602.0,STARLINK-4012,PAYLOAD,2024-07-15 22:31:13,15.08838456,0.0001596,53.2153,100.4878,96.1317,263.9857,0.00052829,8.129e-05,0.0,0 STARLINK-4012,1 52602U 22052E   24197.93835520  .00008129  00000-0  52829-3 0  9993,2 52602  53.2153 100.4878 0001596  96.1317 263.9857 15.08838456120812,6917.885,95.438,540.854,538.646,0.0
52602.0,STARLINK-4012,PAYLOAD,2024-07-16 03:17:23,15.08844238,0.0001435,53.2159,99.5958,87.6862,272.4294,0.0016739,0.00026456,0.0,0 STARLINK-4012,1 52602U 22052E   24198.13707577  .00026456  00000-0  16739-2 0  9998,2 52602  53.2159  99.5958 0001435  87.6862 272.4294 15.08844238120418,6917.867,95.437,540.725,538.74,0.0
